SVYATOBOR 1 (RS60S)     
1 57187U 23091X   26074.27791237  .00011294  00000+0  45527-3 0  9992
2 57187  97.5202 137.6446 0010963  68.1404 292.0998 15.24944558149996
HORS 1                  
1 57188U 23091Y   26074.33459348  .00011113  00000+0  44712-3 0  9999
2 57188  97.5182 137.4776 0010502  68.2901 291.9453 15.25018420150009
VIZARD-METEO (RS38S)    
1 57189U 23091Z   26074.31201015  .00018479  00000+0  58116-3 0  9999
2 57189  97.5192 142.0933 0008420  55.3241 304.8794 15.32983902150295
NANOZOND 1 (RS49S)      
1 57190U 23091AA  26074.26912972  .00233163  00000+0  13847-2 0  9996
2 57190  97.5058 154.9745 0002282 289.4604  70.6415 15.77351754151151
SITRO-AIS 6 (CHIRKIN)   
1 57192U 23091AC  26074.29326468  .00007920  00000+0  32418-3 0  9996
2 57192  97.5180 136.9812 0014089  78.8942 281.3879 15.24502304149970
SITRO-AIS 8 (ANOKHIN)   
1 57193U 23091AD  26074.22334128  .00016936  00000+0  59207-3 0  9994
2 57193  97.5167 138.5736 0012317  75.6668 284.5939 15.29547066150075
SITRO-AIS 7 (FARTUSHNIY)
1 57194U 23091AE  26074.27873267  .00007478  00000+0  30864-3 0  9991
2 57194  97.5179 136.8355 0013982  79.7842 280.4971 15.24245298149969
AVION KALUGA 650        
1 57195U 23091AF  26074.27685985  .00007146  00000+0  34111-3 0  9991
2 57195  97.5210 134.2540 0012148  80.7928 279.4680 15.19300498149765
HORS 2                  
1 57196U 23091AG  26074.28984439  .00015986  00000+0  56115-3 0  9998
2 57196  97.5195 140.1694 0009557  62.9537 297.2677 15.29455826150169
A-SEANSAT-PG1           
1 57197U 23091AH  26074.28951390  .00020219  00000+0  62218-3 0  9995
2 57197  97.5183 142.0629 0008599  61.8391 298.3719 15.33657263150306
SITRO-AIS 10 (BURDAEV)  
1 57199U 23091AK  26074.29412422  .00022366  00000+0  65900-3 0  9992
2 57199  97.5180 142.8104 0007789  57.9647 302.2352 15.35018116150343
SITRO-AIS 9 (SHCHUKIN)  
1 57201U 23091AM  26074.29372441  .00021467  00000+0  64037-3 0  9993
2 57201  97.5179 142.6060 0008025  57.5681 302.6337 15.34635519150339
UTMN 2 (RS27S)          
1 57203U 23091AP  26074.26363977  .00017392  00000+0  60618-3 0  9999
2 57203  97.5193 140.3085 0009390  59.7262 300.4906 15.29670059150176
SITRO-AIS 12 (SMIRENNIY)
1 57204U 23091AQ  26074.30113848  .00021791  00000+0  64493-3 0  9998
2 57204  97.5190 143.0252 0007585  53.0027 307.1909 15.34883960150350
SITRO-AIS 11 (SHEFFER)  
1 57208U 23091AU  26074.27306056  .00024632  00000+0  72045-3 0  9992
2 57208  97.5188 143.1895 0007452  52.7225 307.4697 15.35232773150363
H2SAT (HEINRICH HERTZ)  
1 57213U 23093A   26072.96155966  .00000002  00000+0  00000+0 0  9999
2 57213   0.0331 282.4636 0001331 186.4971  49.4633  1.00276337  9964
